{
  "type": "FeatureCollection",
  "features": [
    {
      "type": "Feature",
      "properties": {
        "norad_id": 66807,
        "name": "STARLINK-36000",
        "group": "last-30-days",
        "lat": 28.83830306628444,
        "lon": -141.36623604281985,
        "alt_km": 411.34817107349954,
        "timestamp": "2025-12-24T07:45:04.932645+00:00",
        "meta_object_name": "STARLINK-36000",
        "meta_object_id": "2025-278S",
        "meta_epoch": "2025-12-24T00:00:00.999648",
        "meta_mean_motion": 15.50494238,
        "meta_eccentricity": 0.00017015,
        "meta_inclination": 42.9997,
        "meta_ra_of_asc_node": 184.3021,
        "meta_arg_of_pericenter": 263.2761,
        "meta_mean_anomaly": 136.8943,
        "meta_ephemeris_type": 0,
        "meta_classification_type": "U",
        "meta_norad_cat_id": 66807,
        "meta_element_set_no": 999,
        "meta_rev_at_epoch": 482,
        "meta_bstar": 0.0019949701,
        "meta_mean_motion_dot": 0.00118119,
        "meta_mean_motion_ddot": 0,
        "tle_line1": "1 66807U 25278S   25358.00001157  .00118119  00000+0  19950-2 0  9994",
        "tle_line2": "2 66807  42.9997 184.3021 0001701 263.2761 136.8943 15.50494238  4823"
      },
      "geometry": {
        "type": "Point",
        "coordinates": [
          -141.36623604281985,
          28.83830306628444
        ]
      }
    },
    {
      "type": "Feature",
      "properties": {
        "norad_id": 66808,
        "name": "STARLINK-36071",
        "group": "last-30-days",
        "lat": 29.880771467484816,
        "lon": -139.52346202324918,
        "alt_km": 410.9981897847356,
        "timestamp": "2025-12-24T07:45:04.932657+00:00",
        "meta_object_name": "STARLINK-36071",
        "meta_object_id": "2025-278T",
        "meta_epoch": "2025-12-24T00:00:00.999648",
        "meta_mean_motion": 15.5049471,
        "meta_eccentricity": 0.0001598,
        "meta_inclination": 42.9999,
        "meta_ra_of_asc_node": 184.2974,
        "meta_arg_of_pericenter": 274.7309,
        "meta_mean_anomaly": 127.3536,
        "meta_ephemeris_type": 0,
        "meta_classification_type": "U",
        "meta_norad_cat_id": 66808,
        "meta_element_set_no": 999,
        "meta_rev_at_epoch": 476,
        "meta_bstar": 0.0019988918,
        "meta_mean_motion_dot": 0.00118357,
        "meta_mean_motion_ddot": 0,
        "tle_line1": "1 66808U 25278T   25358.00001157  .00118357  00000+0  19989-2 0  9991",
        "tle_line2": "2 66808  42.9999 184.2974 0001598 274.7309 127.3536 15.50494710  4762"
      },
      "geometry": {
        "type": "Point",
        "coordinates": [
          -139.52346202324918,
          29.880771467484816
        ]
      }
    },
    {
      "type": "Feature",
      "properties": {
        "norad_id": 66809,
        "name": "STARLINK-35979",
        "group": "last-30-days",
        "lat": 32.84536424870751,
        "lon": -133.7556192351025,
        "alt_km": 410.8264925140629,
        "timestamp": "2025-12-24T07:45:04.932669+00:00",
        "meta_object_name": "STARLINK-35979",
        "meta_object_id": "2025-278U",
        "meta_epoch": "2025-12-23T22:00:01.999584",
        "meta_mean_motion": 15.5050182,
        "meta_eccentricity": 0.00019531,
        "meta_inclination": 43.0001,
        "meta_ra_of_asc_node": 184.7699,
        "meta_arg_of_pericenter": 269.3314,
        "meta_mean_anomaly": 32.8411,
        "meta_ephemeris_type": 0,
        "meta_classification_type": "U",
        "meta_norad_cat_id": 66809,
        "meta_element_set_no": 999,
        "meta_rev_at_epoch": 475,
        "meta_bstar": 0.0016012451,
        "meta_mean_motion_dot": 0.00094478,
        "meta_mean_motion_ddot": 0,
        "tle_line1": "1 66809U 25278U   25357.91668981  .00094478  00000+0  16012-2 0  9996",
        "tle_line2": "2 66809  43.0001 184.7699 0001953 269.3314  32.8411 15.50501820  4751"
      },
      "geometry": {
        "type": "Point",
        "coordinates": [
          -133.7556192351025,
          32.84536424870751
        ]
      }
    },
    {
      "type": "Feature",
      "properties": {
        "norad_id": 66810,
        "name": "STARLINK-36046",
        "group": "last-30-days",
        "lat": 30.89643863132826,
        "lon": -137.6434004401913,
        "alt_km": 410.7909308010667,
        "timestamp": "2025-12-24T07:45:04.932701+00:00",
        "meta_object_name": "STARLINK-36046",
        "meta_object_id": "2025-278V",
        "meta_epoch": "2025-12-23T22:00:01.999584",
        "meta_mean_motion": 15.50495459,
        "meta_eccentricity": 0.0001372,
        "meta_inclination": 42.9999,
        "meta_ra_of_asc_node": 184.7796,
        "meta_arg_of_pericenter": 272.0858,
        "meta_mean_anomaly": 26.2646,
        "meta_ephemeris_type": 0,
        "meta_classification_type": "U",
        "meta_norad_cat_id": 66810,
        "meta_element_set_no": 999,
        "meta_rev_at_epoch": 452,
        "meta_bstar": 0.0015457435,
        "meta_mean_motion_dot": 0.0009113,
        "meta_mean_motion_ddot": 0,
        "tle_line1": "1 66810U 25278V   25357.91668981  .00091130  00000+0  15457-2 0  9992",
        "tle_line2": "2 66810  42.9999 184.7796 0001372 272.0858  26.2646 15.50495459  4526"
      },
      "geometry": {
        "type": "Point",
        "coordinates": [
          -137.6434004401913,
          30.89643863132826
        ]
      }
    },
    {
      "type": "Feature",
      "properties": {
        "norad_id": 66811,
        "name": "STARLINK-36045",
        "group": "last-30-days",
        "lat": 31.88505167495786,
        "lon": -135.72224995759083,
        "alt_km": 410.77479551314264,
        "timestamp": "2025-12-24T07:45:04.932712+00:00",
        "meta_object_name": "STARLINK-36045",
        "meta_object_id": "2025-278W",
        "meta_epoch": "2025-12-23T22:00:01.999584",
        "meta_mean_motion": 15.50498724,
        "meta_eccentricity": 0.00015253,
        "meta_inclination": 43.0002,
        "meta_ra_of_asc_node": 184.7744,
        "meta_arg_of_pericenter": 266.8817,
        "meta_mean_anomaly": 33.3796,
        "meta_ephemeris_type": 0,
        "meta_classification_type": "U",
        "meta_norad_cat_id": 66811,
        "meta_element_set_no": 999,
        "meta_rev_at_epoch": 475,
        "meta_bstar": 0.0015788957,
        "meta_mean_motion_dot": 0.00093127,
        "meta_mean_motion_ddot": 0,
        "tle_line1": "1 66811U 25278W   25357.91668981  .00093127  00000+0  15789-2 0  9999",
        "tle_line2": "2 66811  43.0002 184.7744 0001525 266.8817  33.3796 15.50498724  4751"
      },
      "geometry": {
        "type": "Point",
        "coordinates": [
          -135.72224995759083,
          31.88505167495786
        ]
      }
    },
    {
      "type": "Feature",
      "properties": {
        "norad_id": 66812,
        "name": "STARLINK-36054",
        "group": "last-30-days",
        "lat": 33.77245117509504,
        "lon": -131.75036654693537,
        "alt_km": 410.3826617053828,
        "timestamp": "2025-12-24T07:45:04.932723+00:00",
        "meta_object_name": "STARLINK-36054",
        "meta_object_id": "2025-278X",
        "meta_epoch": "2025-12-23T22:00:01.999584",
        "meta_mean_motion": 15.50505188,
        "meta_eccentricity": 0.00014718,
        "meta_inclination": 43.0001,
        "meta_ra_of_asc_node": 184.7655,
        "meta_arg_of_pericenter": 275.3975,
        "meta_mean_anomaly": 28.6925,
        "meta_ephemeris_type": 0,
        "meta_classification_type": "U",
        "meta_norad_cat_id": 66812,
        "meta_element_set_no": 999,
        "meta_rev_at_epoch": 475,
        "meta_bstar": 0.0014928428,
        "meta_mean_motion_dot": 0.00087995,
        "meta_mean_motion_ddot": 0,
        "tle_line1": "1 66812U 25278X   25357.91668981  .00087995  00000+0  14928-2 0  9990",
        "tle_line2": "2 66812  43.0001 184.7655 0001471 275.3975  28.6925 15.50505188  4756"
      },
      "geometry": {
        "type": "Point",
        "coordinates": [
          -131.75036654693537,
          33.77245117509504
        ]
      }
    },
    {
      "type": "Feature",
      "properties": {
        "norad_id": 66813,
        "name": "STARLINK-36042",
        "group": "last-30-days",
        "lat": 34.6651544025863,
        "lon": -129.70501747403387,
        "alt_km": 410.29135133135424,
        "timestamp": "2025-12-24T07:45:04.932736+00:00",
        "meta_object_name": "STARLINK-36042",
        "meta_object_id": "2025-278Y",
        "meta_epoch": "2025-12-23T22:00:01.999584",
        "meta_mean_motion": 15.50483527,
        "meta_eccentricity": 0.00016364,
        "meta_inclination": 43.0001,
        "meta_ra_of_asc_node": 184.7606,
        "meta_arg_of_pericenter": 281.2183,
        "meta_mean_anomaly": 24.8051,
        "meta_ephemeris_type": 0,
        "meta_classification_type": "U",
        "meta_norad_cat_id": 66813,
        "meta_element_set_no": 999,
        "meta_rev_at_epoch": 475,
        "meta_bstar": 0.0017761344,
        "meta_mean_motion_dot": 0.00104905,
        "meta_mean_motion_ddot": 0,
        "tle_line1": "1 66813U 25278Y   25357.91668981  .00104905  00000+0  17761-2 0  9990",
        "tle_line2": "2 66813  43.0001 184.7606 0001636 281.2183  24.8051 15.50483527  4753"
      },
      "geometry": {
        "type": "Point",
        "coordinates": [
          -129.70501747403387,
          34.6651544025863
        ]
      }
    }
  ]
}